KUIPER-00176            
1 65788U 25217AC  25308.42755550  .00147974  00000+0  38737-2 0  9993
2 65788  51.8687 249.4749 0003955 164.6509 195.4599 15.37660727  6151
KUIPER-00101            
1 65947U 25228A   25308.43874249  .00028308  00000+0  83187-3 0  9999
2 65947  51.8802 205.0925 0005675 210.5635 149.5021 15.34884245  4533
KUIPER-00113            
1 65948U 25228B   25308.43517703  .00024888  00000+0  72695-3 0  9990
2 65948  51.8807 205.0724 0006288 208.0559 152.0089 15.35142861  4539
KUIPER-00117            
1 65949U 25228C   25308.43577279  .00030876  00000+0  89964-3 0  9996
2 65949  51.8805 205.0763 0006078 209.0464 151.0185 15.35104227  4534
KUIPER-00121            
1 65950U 25228D   25308.18361992  .00027479  00000+0  81765-3 0  9999
2 65950  51.8812 206.3875 0005547 224.9829 135.0707 15.34506356  4498
KUIPER-00122            
1 65951U 25228E   25308.50003471 -.01147538  00000+0 -41980-1 0  9996
2 65951  51.8827 204.9626 0006998 235.4050  29.3677 15.30537391  3160
KUIPER-00123            
1 65952U 25228F   25308.50003471  .00029743  00000+0  10533-2 0  9992
2 65952  51.8821 204.9361 0005168 238.9044  23.1328 15.28870166  1463
KUIPER-00124            
1 65953U 25228G   25308.44652794  .00029792  00000+0  89039-3 0  9996
2 65953  51.8808 205.1466 0005276 234.9904 125.0587 15.34325903  4530
